GLOBALSTAR M001         
1 25162U 98008A   25056.94711312 -.00000038  00000+0  45053-3 0  9998
2 25162  52.0037 297.0009 0002110  36.8771 336.5263 12.38207821229935
GLOBALSTAR M004         
1 25163U 98008B   25056.91173775 -.00000068  00000+0  20036-3 0  9998
2 25163  52.0017  33.6235 0003315  46.9291 337.1602 12.63388717247628
GLOBALSTAR M002         
1 25164U 98008C   25056.54879943 -.00000075  00000+0  37146-4 0  9997
2 25164  52.0006 160.1182 0000555 296.3161  63.7602 11.61508262171099
GLOBALSTAR M003         
1 25165U 98008D   25056.89941326 -.00000035  00000+0  58315-3 0  9997
2 25165  51.9989 116.7377 0008284  71.8606  99.8192 12.12072825219813
GLOBALSTAR M014         
1 25306U 98023A   25056.82802818 -.00000060  00000+0  32239-3 0  9991
2 25306  51.9831  84.9837 0001321 150.5304  19.9654 11.65478367178186
GLOBALSTAR M006         
1 25307U 98023B   25056.90794133 -.00000074  00000+0  36634-4 0  9990
2 25307  51.9928 133.0968 0003034 254.3676 277.2895 11.58172443203939
GLOBALSTAR M015         
1 25308U 98023C   25056.75799712 -.00000060  00000+0  31527-3 0  9992
2 25308  51.9791 226.8343 0011893 234.5657 138.4449 11.48858668181271
GLOBALSTAR M008         
1 25309U 98023D   25056.55062017 -.00000072  00000+0  19253-3 0  9997
2 25309  51.9962 161.7169 0001810 302.3920  70.7960 12.36063252224044
